{"type": "FeatureCollection", "features": [ {"type": "Feature", "properties": {"norad_id": 44542, "name": "BEIDOU-3 M24 (C46)", "group": "gnss", "lat": -41.28790336992101, "lon": 47.76295645607186, "alt_km": 21556.604573384888, "timestamp": "2025-12-20T18:51:31.958233+00:00", "meta": {"OBJECT_NAME": "BEIDOU-3 M24 (C46)", "OBJECT_ID": "2019-061A", "EPOCH": "2025-12-19T21:35:13.024320", "MEAN_MOTION": 1.86229464, "ECCENTRICITY": 0.00096018, "INCLINATION": 54.4003, "RA_OF_ASC_NODE": 188.7744, "ARG_OF_PERICENTER": 25.6941, "MEAN_ANOMALY": 334.4131, "EPHEMERIS_TYPE": 0, "CLASSIFICATION_TYPE": "U", "NORAD_CAT_ID": 44542, "ELEMENT_SET_NO": 999, "REV_AT_EPOCH": 4245, "BSTAR": 0, "MEAN_MOTION_DOT": 1e-06, "MEAN_MOTION_DDOT": 0}, "tle": {"line1": "1 44542U 19061A   25353.89945630  .00000100  00000+0  00000+0 0  9997", "line2": "2 44542  54.4003 188.7744 0009601  25.6941 334.4131  1.86229464 42455"}}, "geometry": {"type": "Point", "coordinates": [47.76295645607186, -41.28790336992101]}}, {"type": "Feature", "properties": {"norad_id": 44543, "name": "BEIDOU-3 M23 (C45)", "group": "gnss", "lat": 26.1904213908678, "lon": -11.927478817807314, "alt_km": 21534.10541605748, "timestamp": "2025-12-20T18:51:31.958262+00:00", "meta": {"OBJECT_NAME": "BEIDOU-3 M23 (C45)", "OBJECT_ID": "2019-061B", "EPOCH": "2025-12-20T12:51:14.567328", "MEAN_MOTION": 1.86227656, "ECCENTRICITY": 0.00060805, "INCLINATION": 54.3994, "RA_OF_ASC_NODE": 188.7213, "ARG_OF_PERICENTER": 25.3001, "MEAN_ANOMALY": 314.0126, "EPHEMERIS_TYPE": 0, "CLASSIFICATION_TYPE": "U", "NORAD_CAT_ID": 44543, "ELEMENT_SET_NO": 999, "REV_AT_EPOCH": 4246, "BSTAR": 0, "MEAN_MOTION_DOT": 9.7e-07, "MEAN_MOTION_DDOT": 0}, "tle": {"line1": "1 44543U 19061B   25354.53558527  .00000097  00000+0  00000+0 0  9990", "line2": "2 44543  54.3994 188.7213 0006080  25.3001 314.0126  1.86227656 42467"}}, "geometry": {"type": "Point", "coordinates": [-11.927478817807314, 26.1904213908678]}}, {"type": "Feature", "properties": {"norad_id": 44624, "name": "EUTELSAT 5 WEST B (EGNOS/PRN 121)", "group": "gnss", "lat": 0.04301195542043719, "lon": 7.527887793353704, "alt_km": 35788.03221942564, "timestamp": "2025-12-20T18:51:31.958275+00:00", "meta": {"OBJECT_NAME": "EUTELSAT 5 WEST B (EGNOS/PRN 121)", "OBJECT_ID": "2019-067A", "EPOCH": "2025-12-20T06:21:33.095232", "MEAN_MOTION": 1.00271304, "ECCENTRICITY": 0.00029967, "INCLINATION": 0.0675, "RA_OF_ASC_NODE": 334.6268, "ARG_OF_PERICENTER": 294.5893, "MEAN_ANOMALY": 270.2794, "EPHEMERIS_TYPE": 0, "CLASSIFICATION_TYPE": "U", "NORAD_CAT_ID": 44624, "ELEMENT_SET_NO": 999, "REV_AT_EPOCH": 2264, "BSTAR": 0, "MEAN_MOTION_DOT": -1.8e-07, "MEAN_MOTION_DDOT": 0}, "tle": {"line1": "1 44624U 19067A   25354.26496638 -.00000018  00000+0  00000+0 0  9994", "line2": "2 44624   0.0675 334.6268 0002996 294.5893 270.2794  1.00271304 22641"}}, "geometry": {"type": "Point", "coordinates": [7.527887793353704, 0.04301195542043719]}}, {"type": "Feature", "properties": {"norad_id": 44793, "name": "BEIDOU-3 M22 (C44)", "group": "gnss", "lat": -14.891353726939613, "lon": -65.01336456503134, "alt_km": 21517.70225580641, "timestamp": "2025-12-20T18:51:31.958354+00:00", "meta": {"OBJECT_NAME": "BEIDOU-3 M22 (C44)", "OBJECT_ID": "2019-078A", "EPOCH": "2025-12-19T04:51:35.344224", "MEAN_MOTION": 1.86232161, "ECCENTRICITY": 0.0006038, "INCLINATION": 54.1023, "RA_OF_ASC_NODE": 306.1592, "ARG_OF_PERICENTER": 24.3104, "MEAN_ANOMALY": 335.7082, "EPHEMERIS_TYPE": 0, "CLASSIFICATION_TYPE": "U", "NORAD_CAT_ID": 44793, "ELEMENT_SET_NO": 999, "REV_AT_EPOCH": 4129, "BSTAR": 0, "MEAN_MOTION_DOT": -7.7e-07, "MEAN_MOTION_DDOT": 0}, "tle": {"line1": "1 44793U 19078A   25353.20249241 -.00000077  00000+0  00000+0 0  9997", "line2": "2 44793  54.1023 306.1592 0006038  24.3104 335.7082  1.86232161 41295"}}, "geometry": {"type": "Point", "coordinates": [-65.01336456503134, -14.891353726939613]}}, {"type": "Feature", "properties": {"norad_id": 44794, "name": "BEIDOU-3 M21 (C43)", "group": "gnss", "lat": -49.16498059439227, "lon": -177.0209097485316, "alt_km": 21540.06391573759, "timestamp": "2025-12-20T18:51:31.958375+00:00", "meta": {"OBJECT_NAME": "BEIDOU-3 M21 (C43)", "OBJECT_ID": "2019-078B", "EPOCH": "2025-12-16T15:43:55.727904", "MEAN_MOTION": 1.86227668, "ECCENTRICITY": 0.00041169, "INCLINATION": 54.078, "RA_OF_ASC_NODE": 306.2132, "ARG_OF_PERICENTER": 11.942, "MEAN_ANOMALY": 348.0544, "EPHEMERIS_TYPE": 0, "CLASSIFICATION_TYPE": "U", "NORAD_CAT_ID": 44794, "ELEMENT_SET_NO": 999, "REV_AT_EPOCH": 4125, "BSTAR": 0, "MEAN_MOTION_DOT": -9.5e-07, "MEAN_MOTION_DDOT": 0}, "tle": {"line1": "1 44794U 19078B   25350.65550611 -.00000095  00000+0  00000+0 0  9990", "line2": "2 44794  54.0780 306.2132 0004116  11.9420 348.0544  1.86227668 41256"}}, "geometry": {"type": "Point", "coordinates": [-177.0209097485316, -49.16498059439227]}}, {"type": "Feature", "properties": {"norad_id": 44850, "name": "COSMOS 2544 (759)", "group": "gnss", "lat": 50.538790078450376, "lon": 113.3353974800176, "alt_km": 19159.43397873013, "timestamp": "2025-12-20T18:51:31.958388+00:00", "meta": {"OBJECT_NAME": "COSMOS 2544 (759)", "OBJECT_ID": "2019-088A", "EPOCH": "2025-12-20T05:46:37.881408", "MEAN_MOTION": 2.13102097, "ECCENTRICITY": 0.00141366, "INCLINATION": 65.464, "RA_OF_ASC_NODE": 79.7074, "ARG_OF_PERICENTER": 250.1261, "MEAN_ANOMALY": 109.753, "EPHEMERIS_TYPE": 0, "CLASSIFICATION_TYPE": "U", "NORAD_CAT_ID": 44850, "ELEMENT_SET_NO": 999, "REV_AT_EPOCH": 4690, "BSTAR": 0, "MEAN_MOTION_DOT": -1.9e-07, "MEAN_MOTION_DDOT": 0}, "tle": {"line1": "1 44850U 19088A   25354.24071622 -.00000019  00000+0  00000+0 0  9999", "line2": "2 44850  65.4640  79.7074 0014136 250.1261 109.7530  2.13102097 46903"}}, "geometry": {"type": "Point", "coordinates": [113.3353974800176, 50.538790078450376]}}, {"type": "Feature", "properties": {"norad_id": 44864, "name": "BEIDOU-3 M19 (C41)", "group": "gnss", "lat": 56.09387016863625, "lon": 149.69944320689655, "alt_km": 21569.4405371426, "timestamp": "2025-12-20T18:51:31.958399+00:00", "meta": {"OBJECT_NAME": "BEIDOU-3 M19 (C41)", "OBJECT_ID": "2019-090A", "EPOCH": "2025-12-20T15:41:59.602848", "MEAN_MOTION": 1.86231617, "ECCENTRICITY": 0.0018291, "INCLINATION": 56.3995, "RA_OF_ASC_NODE": 68.6991, "ARG_OF_PERICENTER": 285.0165, "MEAN_ANOMALY": 71.6707, "EPHEMERIS_TYPE": 0, "CLASSIFICATION_TYPE": "U", "NORAD_CAT_ID": 44864, "ELEMENT_SET_NO": 999, "REV_AT_EPOCH": 4090, "BSTAR": 0, "MEAN_MOTION_DOT": -4.1e-07, "MEAN_MOTION_DDOT": 0}, "tle": {"line1": "1 44864U 19090A   25354.65416207 -.00000041  00000+0  00000+0 0  9999", "line2": "2 44864  56.3995  68.6991 0018291 285.0165  71.6707  1.86231617 40908"}}, "geometry": {"type": "Point", "coordinates": [149.69944320689655, 56.09387016863625]}}, {"type": "Feature", "properties": {"norad_id": 44865, "name": "BEIDOU-3 M20 (C42)", "group": "gnss", "lat": 4.657769695464268, "lon": -114.35301004734077, "alt_km": 21550.99671044641, "timestamp": "2025-12-20T18:51:31.958410+00:00", "meta": {"OBJECT_NAME": "BEIDOU-3 M20 (C42)", "OBJECT_ID": "2019-090B", "EPOCH": "2025-12-20T13:54:30.736224", "MEAN_MOTION": 1.86231557, "ECCENTRICITY": 0.00154748, "INCLINATION": 56.4009, "RA_OF_ASC_NODE": 68.736, "ARG_OF_PERICENTER": 297.1994, "MEAN_ANOMALY": 99.0588, "EPHEMERIS_TYPE": 0, "CLASSIFICATION_TYPE": "U", "NORAD_CAT_ID": 44865, "ELEMENT_SET_NO": 999, "REV_AT_EPOCH": 4089, "BSTAR": 0, "MEAN_MOTION_DOT": -4.2e-07, "MEAN_MOTION_DDOT": 0}, "tle": {"line1": "1 44865U 19090B   25354.57952241 -.00000042  00000+0  00000+0 0  9995", "line2": "2 44865  56.4009  68.7360 0015474 297.1994  99.0588  1.86231557 40893"}}, "geometry": {"type": "Point", "coordinates": [-114.35301004734077, 4.657769695464268]}}, {"type": "Feature", "properties": {"norad_id": 45344, "name": "BEIDOU-3 G2 (C60)", "group": "gnss", "lat": 1.9076189571871331, "lon": 92.4961490551644, "alt_km": 35794.26655300663, "timestamp": "2025-12-20T18:51:31.958422+00:00", "meta": {"OBJECT_NAME": "BEIDOU-3 G2 (C60)", "OBJECT_ID": "2020-017A", "EPOCH": "2025-12-19T13:38:45.370752", "MEAN_MOTION": 1.00273166, "ECCENTRICITY": 0.0002079, "INCLINATION": 2.5096, "RA_OF_ASC_NODE": 44.0024, "ARG_OF_PERICENTER": 233.0917, "MEAN_ANOMALY": 96.0359, "EPHEMERIS_TYPE": 0, "CLASSIFICATION_TYPE": "U", "NORAD_CAT_ID": 45344, "ELEMENT_SET_NO": 999, "REV_AT_EPOCH": 2145, "BSTAR": 0, "MEAN_MOTION_DOT": -1.18e-06, "MEAN_MOTION_DDOT": 0}, "tle": {"line1": "1 45344U 20017A   25353.56858068 -.00000118  00000+0  00000+0 0  9993", "line2": "2 45344   2.5096  44.0024 0002079 233.0917  96.0359  1.00273166 21451"}}, "geometry": {"type": "Point", "coordinates": [92.4961490551644, 1.9076189571871331]}}, {"type": "Feature", "properties": {"norad_id": 45358, "name": "COSMOS 2545 (760)", "group": "gnss", "lat": -64.38642641193024, "lon": -136.06910481931544, "alt_km": 19108.453633949568, "timestamp": "2025-12-20T18:51:31.958440+00:00", "meta": {"OBJECT_NAME": "COSMOS 2545 (760)", "OBJECT_ID": "2020-018A", "EPOCH": "2025-12-19T00:41:16.420128", "MEAN_MOTION": 2.13102611, "ECCENTRICITY": 0.0011548, "INCLINATION": 64.4657, "RA_OF_ASC_NODE": 318.7488, "ARG_OF_PERICENTER": 249.6698, "MEAN_ANOMALY": 110.1972, "EPHEMERIS_TYPE": 0, "CLASSIFICATION_TYPE": "U", "NORAD_CAT_ID": 45358, "ELEMENT_SET_NO": 999, "REV_AT_EPOCH": 4482, "BSTAR": 0, "MEAN_MOTION_DOT": -6.1e-07, "MEAN_MOTION_DDOT": 0}, "tle": {"line1": "1 45358U 20018A   25353.02866227 -.00000061  00000+0  00000+0 0  9993", "line2": "2 45358  64.4657 318.7488 0011548 249.6698 110.1972  2.13102611 44827"}}, "geometry": {"type": "Point", "coordinates": [-136.06910481931544, -64.38642641193024]}}]}